ORBCOMM FM05            
1 25117U 97084F   25274.12372638  .00004135  00000+0  11821-2 0  9993
2 25117  45.0129 219.2957 0003417 355.4404   4.6416 14.46293542455942
ORBCOMM FM06            
1 25118U 97084G   25274.19988212  .00005362  00000+0  15155-2 0  9999
2 25118  45.0123 218.5464 0002627 343.3279 149.0438 14.46450960456870
ORBCOMM FM07            
1 25119U 97084H   25274.11857418  .00004517  00000+0  12829-2 0  9991
2 25119  45.0122 219.6986 0004235 358.2059   1.8777 14.46458479456851
ORBCOMM FM03            
1 25158U 98007B   25274.11301617  .00002458  00000+0  90271-3 0  9995
2 25158 107.9625 353.2357 0042610  62.9133 297.6345 14.34747930439237
ORBCOMM FM04            
1 25159U 98007C   25274.49735562  .00003148  00000+0  11398-2 0  9996
2 25159 107.9609 357.3167 0038418  59.3605 301.1314 14.34996166439479
ORBCOMM FM17            
1 25413U 98046A   25274.27562148  .00002148  00000+0  79147-3 0  9992
2 25413  44.9925 116.8518 0003109  33.5862 326.5182 14.35302476418410
ORBCOMM FM18            
1 25414U 98046B   25274.03933960  .00003100  00000+0  10438-2 0  9997
2 25414  44.9934  32.5113 0004388 117.8022 242.3272 14.38841384419493
ORBCOMM FM19            
1 25415U 98046C   25274.35365905  .00003987  00000+0  13340-2 0  9999
2 25415  44.9944  33.1829 0003110 122.4263 270.5291 14.38662365419491
