<?xml version="1.0" encoding="UTF-8"?>
<ndm xmlns:xsi="http://www.w3.org/2001/XMLSchema-instance" xsi:noNamespaceSchemaLocation="https://sanaregistry.org/r/ndmxml_unqualified/ndmxml-2.0.0-master-2.0.xsd">
<omm id="CCSDS_OMM_VERS" version="2.0">
<header><CREATION_DATE/><ORIGINATOR/></header><body><segment><metadata><OBJECT_NAME>ORBCOMM FM05</OBJECT_NAME><OBJECT_ID>1997-084F</OBJECT_ID><CENTER_NAME>EARTH</CENTER_NAME><REF_FRAME>TEME</REF_FRAME><TIME_SYSTEM>UTC</TIME_SYSTEM><MEAN_ELEMENT_THEORY>SGP4</MEAN_ELEMENT_THEORY></metadata><data><meanElements><EPOCH>2025-10-01T02:58:09.959232</EPOCH><MEAN_MOTION>14.46293542</MEAN_MOTION><ECCENTRICITY>.00034179</ECCENTRICITY><INCLINATION>45.0129</INCLINATION><RA_OF_ASC_NODE>219.2957</RA_OF_ASC_NODE><ARG_OF_PERICENTER>355.4404</ARG_OF_PERICENTER><MEAN_ANOMALY>4.6416</MEAN_ANOMALY></meanElements><tleParameters><EPHEMERIS_TYPE>0</EPHEMERIS_TYPE><CLASSIFICATION_TYPE>U</CLASSIFICATION_TYPE><NORAD_CAT_ID>25117</NORAD_CAT_ID><ELEMENT_SET_NO>999</ELEMENT_SET_NO><REV_AT_EPOCH>45594</REV_AT_EPOCH><BSTAR>.11821181E-2</BSTAR><MEAN_MOTION_DOT>.4135E-4</MEAN_MOTION_DOT><MEAN_MOTION_DDOT>0</MEAN_MOTION_DDOT></tleParameters></data></segment></body></omm>
<omm id="CCSDS_OMM_VERS" version="2.0">
<header><CREATION_DATE/><ORIGINATOR/></header><body><segment><metadata><OBJECT_NAME>ORBCOMM FM06</OBJECT_NAME><OBJECT_ID>1997-084G</OBJECT_ID><CENTER_NAME>EARTH</CENTER_NAME><REF_FRAME>TEME</REF_FRAME><TIME_SYSTEM>UTC</TIME_SYSTEM><MEAN_ELEMENT_THEORY>SGP4</MEAN_ELEMENT_THEORY></metadata><data><meanElements><EPOCH>2025-10-01T04:47:49.815168</EPOCH><MEAN_MOTION>14.46450960</MEAN_MOTION><ECCENTRICITY>.00026271</ECCENTRICITY><INCLINATION>45.0123</INCLINATION><RA_OF_ASC_NODE>218.5464</RA_OF_ASC_NODE><ARG_OF_PERICENTER>343.3279</ARG_OF_PERICENTER><MEAN_ANOMALY>149.0438</MEAN_ANOMALY></meanElements><tleParameters><EPHEMERIS_TYPE>0</EPHEMERIS_TYPE><CLASSIFICATION_TYPE>U</CLASSIFICATION_TYPE><NORAD_CAT_ID>25118</NORAD_CAT_ID><ELEMENT_SET_NO>999</ELEMENT_SET_NO><REV_AT_EPOCH>45687</REV_AT_EPOCH><BSTAR>.15155161E-2</BSTAR><MEAN_MOTION_DOT>.5362E-4</MEAN_MOTION_DOT><MEAN_MOTION_DDOT>0</MEAN_MOTION_DDOT></tleParameters></data></segment></body></omm>
<omm id="CCSDS_OMM_VERS" version="2.0">
<header><CREATION_DATE/><ORIGINATOR/></header><body><segment><metadata><OBJECT_NAME>ORBCOMM FM07</OBJECT_NAME><OBJECT_ID>1997-084H</OBJECT_ID><CENTER_NAME>EARTH</CENTER_NAME><REF_FRAME>TEME</REF_FRAME><TIME_SYSTEM>UTC</TIME_SYSTEM><MEAN_ELEMENT_THEORY>SGP4</MEAN_ELEMENT_THEORY></metadata><data><meanElements><EPOCH>2025-10-01T02:50:44.809152</EPOCH><MEAN_MOTION>14.46458479</MEAN_MOTION><ECCENTRICITY>.00042357</ECCENTRICITY><INCLINATION>45.0122</INCLINATION><RA_OF_ASC_NODE>219.6986</RA_OF_ASC_NODE><ARG_OF_PERICENTER>358.2059</ARG_OF_PERICENTER><MEAN_ANOMALY>1.8777</MEAN_ANOMALY></meanElements><tleParameters><EPHEMERIS_TYPE>0</EPHEMERIS_TYPE><CLASSIFICATION_TYPE>U</CLASSIFICATION_TYPE><NORAD_CAT_ID>25119</NORAD_CAT_ID><ELEMENT_SET_NO>999</ELEMENT_SET_NO><REV_AT_EPOCH>45685</REV_AT_EPOCH><BSTAR>.1282926E-2</BSTAR><MEAN_MOTION_DOT>.4517E-4</MEAN_MOTION_DOT><MEAN_MOTION_DDOT>0</MEAN_MOTION_DDOT></tleParameters></data></segment></body></omm>
<omm id="CCSDS_OMM_VERS" version="2.0">
<header><CREATION_DATE/><ORIGINATOR/></header><body><segment><metadata><OBJECT_NAME>ORBCOMM FM03</OBJECT_NAME><OBJECT_ID>1998-007B</OBJECT_ID><CENTER_NAME>EARTH</CENTER_NAME><REF_FRAME>TEME</REF_FRAME><TIME_SYSTEM>UTC</TIME_SYSTEM><MEAN_ELEMENT_THEORY>SGP4</MEAN_ELEMENT_THEORY></metadata><data><meanElements><EPOCH>2025-10-01T02:42:44.597088</EPOCH><MEAN_MOTION>14.34747930</MEAN_MOTION><ECCENTRICITY>.004261</ECCENTRICITY><INCLINATION>107.9625</INCLINATION><RA_OF_ASC_NODE>353.2357</RA_OF_ASC_NODE><ARG_OF_PERICENTER>62.9133</ARG_OF_PERICENTER><MEAN_ANOMALY>297.6345</MEAN_ANOMALY></meanElements><tleParameters><EPHEMERIS_TYPE>0</EPHEMERIS_TYPE><CLASSIFICATION_TYPE>U</CLASSIFICATION_TYPE><NORAD_CAT_ID>25158</NORAD_CAT_ID><ELEMENT_SET_NO>999</ELEMENT_SET_NO><REV_AT_EPOCH>43923</REV_AT_EPOCH><BSTAR>.90270833E-3</BSTAR><MEAN_MOTION_DOT>.2458E-4</MEAN_MOTION_DOT><MEAN_MOTION_DDOT>0</MEAN_MOTION_DDOT></tleParameters></data></segment></body></omm>
<omm id="CCSDS_OMM_VERS" version="2.0">
<header><CREATION_DATE/><ORIGINATOR/></header><body><segment><metadata><OBJECT_NAME>ORBCOMM FM04</OBJECT_NAME><OBJECT_ID>1998-007C</OBJECT_ID><CENTER_NAME>EARTH</CENTER_NAME><REF_FRAME>TEME</REF_FRAME><TIME_SYSTEM>UTC</TIME_SYSTEM><MEAN_ELEMENT_THEORY>SGP4</MEAN_ELEMENT_THEORY></metadata><data><meanElements><EPOCH>2025-10-01T11:56:11.525568</EPOCH><MEAN_MOTION>14.34996166</MEAN_MOTION><ECCENTRICITY>.0038418</ECCENTRICITY><INCLINATION>107.9609</INCLINATION><RA_OF_ASC_NODE>357.3167</RA_OF_ASC_NODE><ARG_OF_PERICENTER>59.3605</ARG_OF_PERICENTER><MEAN_ANOMALY>301.1314</MEAN_ANOMALY></meanElements><tleParameters><EPHEMERIS_TYPE>0</EPHEMERIS_TYPE><CLASSIFICATION_TYPE>U</CLASSIFICATION_TYPE><NORAD_CAT_ID>25159</NORAD_CAT_ID><ELEMENT_SET_NO>999</ELEMENT_SET_NO><REV_AT_EPOCH>43947</REV_AT_EPOCH><BSTAR>.11398E-2</BSTAR><MEAN_MOTION_DOT>.3148E-4</MEAN_MOTION_DOT><MEAN_MOTION_DDOT>0</MEAN_MOTION_DDOT></tleParameters></data></segment></body></omm>
<omm id="CCSDS_OMM_VERS" version="2.0">
<header><CREATION_DATE/><ORIGINATOR/></header><body><segment><metadata><OBJECT_NAME>ORBCOMM FM17</OBJECT_NAME><OBJECT_ID>1998-046A</OBJECT_ID><CENTER_NAME>EARTH</CENTER_NAME><REF_FRAME>TEME</REF_FRAME><TIME_SYSTEM>UTC</TIME_SYSTEM><MEAN_ELEMENT_THEORY>SGP4</MEAN_ELEMENT_THEORY></metadata><data><meanElements><EPOCH>2025-10-01T06:36:53.695872</EPOCH><MEAN_MOTION>14.35302476</MEAN_MOTION><ECCENTRICITY>.0003109</ECCENTRICITY><INCLINATION>44.9925</INCLINATION><RA_OF_ASC_NODE>116.8518</RA_OF_ASC_NODE><ARG_OF_PERICENTER>33.5862</ARG_OF_PERICENTER><MEAN_ANOMALY>326.5182</MEAN_ANOMALY></meanElements><tleParameters><EPHEMERIS_TYPE>0</EPHEMERIS_TYPE><CLASSIFICATION_TYPE>U</CLASSIFICATION_TYPE><NORAD_CAT_ID>25413</NORAD_CAT_ID><ELEMENT_SET_NO>999</ELEMENT_SET_NO><REV_AT_EPOCH>41841</REV_AT_EPOCH><BSTAR>.79147E-3</BSTAR><MEAN_MOTION_DOT>.2148E-4</MEAN_MOTION_DOT><MEAN_MOTION_DDOT>0</MEAN_MOTION_DDOT></tleParameters></data></segment></body></omm>
<omm id="CCSDS_OMM_VERS" version="2.0">
<header><CREATION_DATE/><ORIGINATOR/></header><body><segment><metadata><OBJECT_NAME>ORBCOMM FM18</OBJECT_NAME><OBJECT_ID>1998-046B</OBJECT_ID><CENTER_NAME>EARTH</CENTER_NAME><REF_FRAME>TEME</REF_FRAME><TIME_SYSTEM>UTC</TIME_SYSTEM><MEAN_ELEMENT_THEORY>SGP4</MEAN_ELEMENT_THEORY></metadata><data><meanElements><EPOCH>2025-10-01T00:56:38.941440</EPOCH><MEAN_MOTION>14.38841384</MEAN_MOTION><ECCENTRICITY>.00043885</ECCENTRICITY><INCLINATION>44.9934</INCLINATION><RA_OF_ASC_NODE>32.5113</RA_OF_ASC_NODE><ARG_OF_PERICENTER>117.8022</ARG_OF_PERICENTER><MEAN_ANOMALY>242.3272</MEAN_ANOMALY></meanElements><tleParameters><EPHEMERIS_TYPE>0</EPHEMERIS_TYPE><CLASSIFICATION_TYPE>U</CLASSIFICATION_TYPE><NORAD_CAT_ID>25414</NORAD_CAT_ID><ELEMENT_SET_NO>999</ELEMENT_SET_NO><REV_AT_EPOCH>41949</REV_AT_EPOCH><BSTAR>.10438196E-2</BSTAR><MEAN_MOTION_DOT>.31E-4</MEAN_MOTION_DOT><MEAN_MOTION_DDOT>0</MEAN_MOTION_DDOT></tleParameters></data></segment></body></omm>
<omm id="CCSDS_OMM_VERS" version="2.0">
<header><CREATION_DATE/><ORIGINATOR/></header><body><segment><metadata><OBJECT_NAME>ORBCOMM FM19</OBJECT_NAME><OBJECT_ID>1998-046C</OBJECT_ID><CENTER_NAME>EARTH</CENTER_NAME><REF_FRAME>TEME</REF_FRAME><TIME_SYSTEM>UTC</TIME_SYSTEM><MEAN_ELEMENT_THEORY>SGP4</MEAN_ELEMENT_THEORY></metadata><data><meanElements><EPOCH>2025-10-01T08:29:16.141920</EPOCH><MEAN_MOTION>14.38662365</MEAN_MOTION><ECCENTRICITY>.000311</ECCENTRICITY><INCLINATION>44.9944</INCLINATION><RA_OF_ASC_NODE>33.1829</RA_OF_ASC_NODE><ARG_OF_PERICENTER>122.4263</ARG_OF_PERICENTER><MEAN_ANOMALY>270.5291</MEAN_ANOMALY></meanElements><tleParameters><EPHEMERIS_TYPE>0</EPHEMERIS_TYPE><CLASSIFICATION_TYPE>U</CLASSIFICATION_TYPE><NORAD_CAT_ID>25415</NORAD_CAT_ID><ELEMENT_SET_NO>999</ELEMENT_SET_NO><REV_AT_EPOCH>41949</REV_AT_EPOCH><BSTAR>.1334E-2</BSTAR><MEAN_MOTION_DOT>.3987E-4</MEAN_MOTION_DOT><MEAN_MOTION_DDOT>0</MEAN_MOTION_DDOT></tleParameters></data></segment></body></omm>

</ndm>
